CCSDS_OMM_VERS = 2.0
CREATION_DATE  = 
ORIGINATOR     = 

OBJECT_NAME    = HULIANWANG DIGUI-144
OBJECT_ID      = 2026-007H
CENTER_NAME    = EARTH
REF_FRAME      = TEME
TIME_SYSTEM    = UTC
MEAN_ELEMENT_THEORY = SGP/SGP4

EPOCH          = 2026-01-26T21:36:09.204192
MEAN_MOTION    = 13.88709614
ECCENTRICITY   = .00031018
INCLINATION    = 50.0098
RA_OF_ASC_NODE = 241.5738
ARG_OF_PERICENTER = 335.0870
MEAN_ANOMALY   = 24.9878

EPHEMERIS_TYPE = 0
CLASSIFICATION_TYPE = U
NORAD_CAT_ID   = 67442
ELEMENT_SET_NO = 999
REV_AT_EPOCH   = 185
BSTAR          = .17900349E-3
MEAN_MOTION_DOT = .71E-6
MEAN_MOTION_DDOT = 0

CCSDS_OMM_VERS = 2.0
CREATION_DATE  = 
ORIGINATOR     = 

OBJECT_NAME    = HULIANWANG DIGUI-145
OBJECT_ID      = 2026-007J
CENTER_NAME    = EARTH
REF_FRAME      = TEME
TIME_SYSTEM    = UTC
MEAN_ELEMENT_THEORY = SGP/SGP4

EPOCH          = 2026-01-27T06:11:01.816224
MEAN_MOTION    = 13.89022183
ECCENTRICITY   = .00001953
INCLINATION    = 50.0082
RA_OF_ASC_NODE = 240.1276
ARG_OF_PERICENTER = 299.9982
MEAN_ANOMALY   = 60.0896

EPHEMERIS_TYPE = 0
CLASSIFICATION_TYPE = U
NORAD_CAT_ID   = 67443
ELEMENT_SET_NO = 999
REV_AT_EPOCH   = 190
BSTAR          = .21020779E-3
MEAN_MOTION_DOT = .11E-5
MEAN_MOTION_DDOT = 0

CCSDS_OMM_VERS = 2.0
CREATION_DATE  = 
ORIGINATOR     = 

OBJECT_NAME    = CZ-8A R/B
OBJECT_ID      = 2026-007K
CENTER_NAME    = EARTH
REF_FRAME      = TEME
TIME_SYSTEM    = UTC
MEAN_ELEMENT_THEORY = SGP/SGP4

EPOCH          = 2026-01-27T06:17:14.407584
MEAN_MOTION    = 14.13549242
ECCENTRICITY   = .00921707
INCLINATION    = 50.0084
RA_OF_ASC_NODE = 238.1306
ARG_OF_PERICENTER = 129.7957
MEAN_ANOMALY   = 231.1112

EPHEMERIS_TYPE = 0
CLASSIFICATION_TYPE = U
NORAD_CAT_ID   = 67444
ELEMENT_SET_NO = 999
REV_AT_EPOCH   = 192
BSTAR          = .160159E-3
MEAN_MOTION_DOT = .16E-5
MEAN_MOTION_DDOT = 0

CCSDS_OMM_VERS = 2.0
CREATION_DATE  = 
ORIGINATOR     = 

OBJECT_NAME    = STARLINK-36542
OBJECT_ID      = 2026-008A
CENTER_NAME    = EARTH
REF_FRAME      = TEME
TIME_SYSTEM    = UTC
MEAN_ELEMENT_THEORY = SGP/SGP4

EPOCH          = 2026-01-27T06:00:00.999648
MEAN_MOTION    = 15.86808226
ECCENTRICITY   = .00013257
INCLINATION    = 43.0010
RA_OF_ASC_NODE = 85.2053
ARG_OF_PERICENTER = 273.9520
MEAN_ANOMALY   = 194.9469

EPHEMERIS_TYPE = 0
CLASSIFICATION_TYPE = U
NORAD_CAT_ID   = 67445
ELEMENT_SET_NO = 999
REV_AT_EPOCH   = 313
BSTAR          = -.48134578E-2
MEAN_MOTION_DOT = -.112312E-1
MEAN_MOTION_DDOT = 0

CCSDS_OMM_VERS = 2.0
CREATION_DATE  = 
ORIGINATOR     = 

OBJECT_NAME    = STARLINK-36539
OBJECT_ID      = 2026-008B
CENTER_NAME    = EARTH
REF_FRAME      = TEME
TIME_SYSTEM    = UTC
MEAN_ELEMENT_THEORY = SGP/SGP4

EPOCH          = 2026-01-27T06:00:00.999648
MEAN_MOTION    = 15.86818832
ECCENTRICITY   = .00014039
INCLINATION    = 43.0009
RA_OF_ASC_NODE = 85.1982
ARG_OF_PERICENTER = 275.3523
MEAN_ANOMALY   = 196.3339

EPHEMERIS_TYPE = 0
CLASSIFICATION_TYPE = U
NORAD_CAT_ID   = 67446
ELEMENT_SET_NO = 999
REV_AT_EPOCH   = 313
BSTAR          = -.48610283E-2
MEAN_MOTION_DOT = -.1133432E-1
MEAN_MOTION_DDOT = 0

CCSDS_OMM_VERS = 2.0
CREATION_DATE  = 
ORIGINATOR     = 

OBJECT_NAME    = STARLINK-36440
OBJECT_ID      = 2026-008C
CENTER_NAME    = EARTH
REF_FRAME      = TEME
TIME_SYSTEM    = UTC
MEAN_ELEMENT_THEORY = SGP/SGP4

EPOCH          = 2026-01-27T06:00:00.999648
MEAN_MOTION    = 15.86829678
ECCENTRICITY   = .00012616
INCLINATION    = 43.0009
RA_OF_ASC_NODE = 85.1912
ARG_OF_PERICENTER = 274.1223
MEAN_ANOMALY   = 200.5623

EPHEMERIS_TYPE = 0
CLASSIFICATION_TYPE = U
NORAD_CAT_ID   = 67447
ELEMENT_SET_NO = 999
REV_AT_EPOCH   = 313
BSTAR          = -.49875094E-2
MEAN_MOTION_DOT = -.1181738E-1
MEAN_MOTION_DDOT = 0

CCSDS_OMM_VERS = 2.0
CREATION_DATE  = 
ORIGINATOR     = 

OBJECT_NAME    = STARLINK-36423
OBJECT_ID      = 2026-008D
CENTER_NAME    = EARTH
REF_FRAME      = TEME
TIME_SYSTEM    = UTC
MEAN_ELEMENT_THEORY = SGP/SGP4

EPOCH          = 2026-01-27T06:00:00.999648
MEAN_MOTION    = 15.86846568
ECCENTRICITY   = .00012468
INCLINATION    = 43.0010
RA_OF_ASC_NODE = 85.1840
ARG_OF_PERICENTER = 277.6667
MEAN_ANOMALY   = 199.7351

EPHEMERIS_TYPE = 0
CLASSIFICATION_TYPE = U
NORAD_CAT_ID   = 67448
ELEMENT_SET_NO = 999
REV_AT_EPOCH   = 313
BSTAR          = -.51080783E-2
MEAN_MOTION_DOT = -.1208086E-1
MEAN_MOTION_DDOT = 0

CCSDS_OMM_VERS = 2.0
CREATION_DATE  = 
ORIGINATOR     = 

OBJECT_NAME    = STARLINK-36519
OBJECT_ID      = 2026-008E
CENTER_NAME    = EARTH
REF_FRAME      = TEME
TIME_SYSTEM    = UTC
MEAN_ELEMENT_THEORY = SGP/SGP4

EPOCH          = 2026-01-27T06:00:00.999648
MEAN_MOTION    = 15.86858413
ECCENTRICITY   = .00012256
INCLINATION    = 43.0011
RA_OF_ASC_NODE = 85.1766
ARG_OF_PERICENTER = 271.8286
MEAN_ANOMALY   = 208.5028

EPHEMERIS_TYPE = 0
CLASSIFICATION_TYPE = U
NORAD_CAT_ID   = 67449
ELEMENT_SET_NO = 999
REV_AT_EPOCH   = 313
BSTAR          = -.52560708E-2
MEAN_MOTION_DOT = -.1239794E-1
MEAN_MOTION_DDOT = 0

CCSDS_OMM_VERS = 2.0
CREATION_DATE  = 
ORIGINATOR     = 

OBJECT_NAME    = STARLINK-36525
OBJECT_ID      = 2026-008F
CENTER_NAME    = EARTH
REF_FRAME      = TEME
TIME_SYSTEM    = UTC
MEAN_ELEMENT_THEORY = SGP/SGP4

EPOCH          = 2026-01-27T06:00:00.999648
MEAN_MOTION    = 15.86861187
ECCENTRICITY   = .00012963
INCLINATION    = 43.0009
RA_OF_ASC_NODE = 85.1678
ARG_OF_PERICENTER = 274.7216
MEAN_ANOMALY   = 208.9787

EPHEMERIS_TYPE = 0
CLASSIFICATION_TYPE = U
NORAD_CAT_ID   = 67450
ELEMENT_SET_NO = 999
REV_AT_EPOCH   = 313
BSTAR          = -.54551232E-2
MEAN_MOTION_DOT = -.1281473E-1
MEAN_MOTION_DDOT = 0

CCSDS_OMM_VERS = 2.0
CREATION_DATE  = 
ORIGINATOR     = 

OBJECT_NAME    = STARLINK-36511
OBJECT_ID      = 2026-008G
CENTER_NAME    = EARTH
REF_FRAME      = TEME
TIME_SYSTEM    = UTC
MEAN_ELEMENT_THEORY = SGP/SGP4

EPOCH          = 2026-01-27T06:00:00.999648
MEAN_MOTION    = 15.86850658
ECCENTRICITY   = .00012255
INCLINATION    = 43.0010
RA_OF_ASC_NODE = 85.1592
ARG_OF_PERICENTER = 273.7493
MEAN_ANOMALY   = 213.4292

EPHEMERIS_TYPE = 0
CLASSIFICATION_TYPE = U
NORAD_CAT_ID   = 67451
ELEMENT_SET_NO = 999
REV_AT_EPOCH   = 313
BSTAR          = -.5613147E-2
MEAN_MOTION_DOT = -.1313479E-1
MEAN_MOTION_DDOT = 0

CCSDS_OMM_VERS = 2.0
CREATION_DATE  = 
ORIGINATOR     = 

OBJECT_NAME    = STARLINK-36524
OBJECT_ID      = 2026-008H
CENTER_NAME    = EARTH
REF_FRAME      = TEME
TIME_SYSTEM    = UTC
MEAN_ELEMENT_THEORY = SGP/SGP4

EPOCH          = 2026-01-27T06:00:00.999648
MEAN_MOTION    = 15.86845984
ECCENTRICITY   = .00012625
INCLINATION    = 43.0011
RA_OF_ASC_NODE = 85.1515
ARG_OF_PERICENTER = 275.4631
MEAN_ANOMALY   = 214.6843

EPHEMERIS_TYPE = 0
CLASSIFICATION_TYPE = U
NORAD_CAT_ID   = 67452
ELEMENT_SET_NO = 999
REV_AT_EPOCH   = 313
BSTAR          = -.57100286E-2
MEAN_MOTION_DOT = -.1333126E-1
MEAN_MOTION_DDOT = 0

CCSDS_OMM_VERS = 2.0
CREATION_DATE  = 
ORIGINATOR     = 

OBJECT_NAME    = STARLINK-36518
OBJECT_ID      = 2026-008J
CENTER_NAME    = EARTH
REF_FRAME      = TEME
TIME_SYSTEM    = UTC
MEAN_ELEMENT_THEORY = SGP/SGP4

EPOCH          = 2026-01-27T06:00:00.999648
MEAN_MOTION    = 15.88541230
ECCENTRICITY   = .00012138
INCLINATION    = 42.9995
RA_OF_ASC_NODE = 84.7944
ARG_OF_PERICENTER = 264.8899
MEAN_ANOMALY   = 5.2375

EPHEMERIS_TYPE = 0
CLASSIFICATION_TYPE = U
NORAD_CAT_ID   = 67453
ELEMENT_SET_NO = 999
REV_AT_EPOCH   = 315
BSTAR          = -.63995829E-2
MEAN_MOTION_DOT = -.161969E-1
MEAN_MOTION_DDOT = 0

