HULIANWANG DIGUI-144    
1 67442U 26007H   26026.90010653  .00000071  00000+0  17900-3 0  9995
2 67442  50.0098 241.5738 0003101 335.0870  24.9878 13.88709614  1857
HULIANWANG DIGUI-145    
1 67443U 26007J   26027.25765991  .00000110  00000+0  21021-3 0  9990
2 67443  50.0082 240.1276 0000195 299.9982  60.0896 13.89022183  1902
CZ-8A R/B               
1 67444U 26007K   26027.26197231  .00000160  00000+0  16016-3 0  9991
2 67444  50.0084 238.1306 0092170 129.7957 231.1112 14.13549242  1924
STARLINK-36542          
1 67445U 26008A   26027.25001157 -.01123120  00000+0 -48135-2 0  9994
2 67445  43.0010  85.2053 0001325 273.9520 194.9469 15.86808226  3133
STARLINK-36539          
1 67446U 26008B   26027.25001157 -.01133432  00000+0 -48610-2 0  9990
2 67446  43.0009  85.1982 0001403 275.3523 196.3339 15.86818832  3134
STARLINK-36440          
1 67447U 26008C   26027.25001157 -.01181738  00000+0 -49875-2 0  9997
2 67447  43.0009  85.1912 0001261 274.1223 200.5623 15.86829678  3138
STARLINK-36423          
1 67448U 26008D   26027.25001157 -.01208086  00000+0 -51081-2 0  9996
2 67448  43.0010  85.1840 0001246 277.6667 199.7351 15.86846568  3138
STARLINK-36519          
1 67449U 26008E   26027.25001157 -.01239794  00000+0 -52561-2 0  9991
2 67449  43.0011  85.1766 0001225 271.8286 208.5028 15.86858413  3139
STARLINK-36525          
1 67450U 26008F   26027.25001157 -.01281473  00000+0 -54551-2 0  9995
2 67450  43.0009  85.1678 0001296 274.7216 208.9787 15.86861187  3131
STARLINK-36511          
1 67451U 26008G   26027.25001157 -.01313479  00000+0 -56131-2 0  9994
2 67451  43.0010  85.1592 0001225 273.7493 213.4292 15.86850658  3130
STARLINK-36524          
1 67452U 26008H   26027.25001157 -.01333126  00000+0 -57100-2 0  9993
2 67452  43.0011  85.1515 0001262 275.4631 214.6843 15.86845984  3132
STARLINK-36518          
1 67453U 26008J   26027.25001157 -.01619690  00000+0 -63996-2 0  9997
2 67453  42.9995  84.7944 0001213 264.8899   5.2375 15.88541230  3152
